$$SOE
2461323.500000000, A.D. 2026-Oct-10 00:00:00.0000, 5.900019944826932E+09, 8.071299071519228E+08, 3.531591758823843E+08,
2461330.500000000, A.D. 2026-Oct-17 00:00:00.0000, 5.900118819173759E+09, 8.102248685974410E+08, 3.528514488636378E+08,
2461337.500000000, A.D. 2026-Oct-24 00:00:00.0000, 5.900216367309868E+09, 8.133195838224880E+08, 3.525436409502167E+08,
2461344.500000000, A.D. 2026-Oct-31 00:00:00.0000, 5.900312590301901E+09, 8.164140494014492E+08, 3.522357521705565E+08,
2461351.500000000, A.D. 2026-Nov-07 00:00:00.0000, 5.900407490016094E+09, 8.195082612791562E+08, 3.519277824316974E+08,
2461358.500000000, A.D. 2026-Nov-14 00:00:00.0000, 5.900501070200071E+09, 8.226022152913624E+08, 3.516197314555236E+08,
2461365.500000000, A.D. 2026-Nov-21 00:00:00.0000, 5.900593336381039E+09, 8.256959091658804E+08, 3.513115989445142E+08,
2461372.500000000, A.D. 2026-Nov-28 00:00:00.0000, 5.900684293582313E+09, 8.287893429963213E+08, 3.510033848229806E+08,
2461379.500000000, A.D. 2026-Dec-05 00:00:00.0000, 5.900773945477671E+09, 8.318825175321074E+08, 3.506950891684657E+08,
2461386.500000000, A.D. 2026-Dec-12 00:00:00.0000, 5.900862295148484E+09, 8.349754333957391E+08, 3.503867120726994E+08,
2461393.500000000, A.D. 2026-Dec-19 00:00:00.0000, 5.900949345556346E+09, 8.380680912337416E+08, 3.500782536060003E+08,
2461400.500000000, A.D. 2026-Dec-26 00:00:00.0000, 5.901035099588790E+09, 8.411604919332190E+08, 3.497697138274568E+08,
2461407.500000000, A.D. 2027-Jan-02 00:00:00.0000, 5.901119559953659E+09, 8.442526367129774E+08, 3.494610928001685E+08,
2461414.500000000, A.D. 2027-Jan-09 00:00:00.0000, 5.901202729038444E+09, 8.473445271092167E+08, 3.491523906025836E+08,
2461421.500000000, A.D. 2027-Jan-16 00:00:00.0000, 5.901284608768914E+09, 8.504361648643917E+08, 3.488436073334978E+08,
2461428.500000000, A.D. 2027-Jan-23 00:00:00.0000, 5.901365200511586E+09, 8.535275516794074E+08, 3.485347431032681E+08,
2461435.500000000, A.D. 2027-Jan-30 00:00:00.0000, 5.901444505206178E+09, 8.566186887811830E+08, 3.482257979900962E+08,
2461442.500000000, A.D. 2027-Feb-06 00:00:00.0000, 5.901522524151127E+09, 8.597095766454518E+08, 3.479167719501148E+08,
2461449.500000000, A.D. 2027-Feb-13 00:00:00.0000, 5.901599259980299E+09, 8.628002160943490E+08, 3.476076648230454E+08,
2461456.500000000, A.D. 2027-Feb-20 00:00:00.0000, 5.901674715465709E+09, 8.658906099776896E+08, 3.472984765854115E+08,
2461463.500000000, A.D. 2027-Feb-27 00:00:00.0000, 5.901748891541189E+09, 8.689807622242198E+08, 3.469892074604521E+08,
2461470.500000000, A.D. 2027-Mar-06 00:00:00.0000, 5.901821787564525E+09, 8.720706761853967E+08, 3.466798577648404E+08,
2461477.500000000, A.D. 2027-Mar-13 00:00:00.0000, 5.901893402217525E+09, 8.751603543211557E+08, 3.463704278062652E+08,
2461484.500000000, A.D. 2027-Mar-20 00:00:00.0000, 5.901963733914429E+09, 8.782497983930159E+08, 3.460609178670796E+08,
2461491.500000000, A.D. 2027-Mar-27 00:00:00.0000, 5.902032780920647E+09, 8.813390096155893E+08, 3.457513282104800E+08,
2461498.500000000, A.D. 2027-Apr-03 00:00:00.0000, 5.902100541384722E+09, 8.844279887187495E+08, 3.454416590866038E+08,
2461505.500000000, A.D. 2027-Apr-10 00:00:00.0000, 5.902167013344754E+09, 8.875167359435297E+08, 3.451319107347300E+08,
2461512.500000000, A.D. 2027-Apr-17 00:00:00.0000, 5.902232194731354E+09, 8.906052509574327E+08, 3.448220833783506E+08,
2461519.500000000, A.D. 2027-Apr-24 00:00:00.0000, 5.902296083446361E+09, 8.936935326269964E+08, 3.445121772007351E+08,
2461526.500000000, A.D. 2027-May-01 00:00:00.0000, 5.902358677816936E+09, 8.967815786754258E+08, 3.442021922757820E+08,
2461533.500000000, A.D. 2027-May-08 00:00:00.0000, 5.902419977732433E+09, 8.998693859736832E+08, 3.438921284871280E+08,
2461540.500000000, A.D. 2027-May-15 00:00:00.0000, 5.902479984967184E+09, 9.029569524184704E+08, 3.435819856507450E+08,
2461547.500000000, A.D. 2027-May-22 00:00:00.0000, 5.902538701125319E+09, 9.060442778055043E+08, 3.432717637726954E+08,
2461554.500000000, A.D. 2027-May-29 00:00:00.0000, 5.902596126563560E+09, 9.091313622298262E+08, 3.429614630143254E+08,
2461561.500000000, A.D. 2027-Jun-05 00:00:00.0000, 5.902652261176825E+09, 9.122182051448941E+08, 3.426510835397724E+08,
2461568.500000000, A.D. 2027-Jun-12 00:00:00.0000, 5.902707105039099E+09, 9.153048055122564E+08, 3.423406254653075E+08,
2461575.500000000, A.D. 2027-Jun-19 00:00:00.0000, 5.902760658568588E+09, 9.183911621067917E+08, 3.420300888646066E+08,
2461582.500000000, A.D. 2027-Jun-26 00:00:00.0000, 5.902812922496524E+09, 9.214772737162031E+08, 3.417194737831466E+08,
2461589.500000000, A.D. 2027-Jul-03 00:00:00.0000, 5.902863897771787E+09, 9.245631392430618E+08, 3.414087802505042E+08,
2461596.500000000, A.D. 2027-Jul-10 00:00:00.0000, 5.902913585438169E+09, 9.276487577181274E+08, 3.410980082881221E+08,
2461603.500000000, A.D. 2027-Jul-17 00:00:00.0000, 5.902961986520632E+09, 9.307341281860797E+08, 3.407871579062905E+08,
2461610.500000000, A.D. 2027-Jul-24 00:00:00.0000, 5.903009102076991E+09, 9.338192494008597E+08, 3.404762290711070E+08,
2461617.500000000, A.D. 2027-Jul-31 00:00:00.0000, 5.903054933826447E+09, 9.369041195661330E+08, 3.401652216231533E+08,
2461624.500000000, A.D. 2027-Aug-07 00:00:00.0000, 5.903099485154243E+09, 9.399887372726009E+08, 3.398541352606062E+08,
2461631.500000000, A.D. 2027-Aug-14 00:00:00.0000, 5.903142760191341E+09, 9.430731033788526E+08, 3.395429697772379E+08,
2461638.500000000, A.D. 2027-Aug-21 00:00:00.0000, 5.903184761587319E+09, 9.461572204715714E+08, 3.392317252237088E+08,
2461645.500000000, A.D. 2027-Aug-28 00:00:00.0000, 5.903225490407566E+09, 9.492410911083195E+08, 3.389204017757758E+08,
2461652.500000000, A.D. 2027-Sep-04 00:00:00.0000, 5.903264946973613E+09, 9.523247173451952E+08, 3.386089996221139E+08,
2461659.500000000, A.D. 2027-Sep-11 00:00:00.0000, 5.903303131251303E+09, 9.554081008880739E+08, 3.382975189454826E+08,
2461666.500000000, A.D. 2027-Sep-18 00:00:00.0000, 5.903340042919961E+09, 9.584912432173483E+08, 3.379859599316465E+08,
2461673.500000000, A.D. 2027-Sep-25 00:00:00.0000, 5.903375681351459E+09, 9.615741456087730E+08, 3.376743227784474E+08,
2461680.500000000, A.D. 2027-Oct-02 00:00:00.0000, 5.903410045574205E+09, 9.646568090783077E+08, 3.373626077001339E+08,
2461687.500000000, A.D. 2027-Oct-09 00:00:00.0000, 5.903443134244598E+09, 9.677392342468603E+08, 3.370508149242633E+08,
2461694.500000000, A.D. 2027-Oct-16 00:00:00.0000, 5.903474945689214E+09, 9.708214210704590E+08, 3.367389446706780E+08,
2461701.500000000, A.D. 2027-Oct-23 00:00:00.0000, 5.903505478277699E+09, 9.739033684305698E+08, 3.364269970880588E+08,
2461708.500000000, A.D. 2027-Oct-30 00:00:00.0000, 5.903534731501285E+09, 9.769850741952248E+08, 3.361149721634308E+08,
2461715.500000000, A.D. 2027-Nov-06 00:00:00.0000, 5.903562706593518E+09, 9.800665368793933E+08, 3.358028698034189E+08,
2461722.500000000, A.D. 2027-Nov-13 00:00:00.0000, 5.903589404707919E+09, 9.831477568286108E+08, 3.354906900996065E+08,
2461729.500000000, A.D. 2027-Nov-20 00:00:00.0000, 5.903614825554445E+09, 9.862287347401608E+08, 3.351784333331998E+08,
2461736.500000000, A.D. 2027-Nov-27 00:00:00.0000, 5.903638968112373E+09, 9.893094704863889E+08, 3.348660998129302E+08,
2461743.500000000, A.D. 2027-Dec-04 00:00:00.0000, 5.903661831396056E+09, 9.923899631541625E+08, 3.345536898065113E+08,
2461750.500000000, A.D. 2027-Dec-11 00:00:00.0000, 5.903683414722989E+09, 9.954702113365871E+08, 3.342412035374241E+08,
2461757.500000000, A.D. 2027-Dec-18 00:00:00.0000, 5.903703717759161E+09, 9.985502133379714E+08, 3.339286411941665E+08,
2461764.500000000, A.D. 2027-Dec-25 00:00:00.0000, 5.903722740493698E+09, 1.001629967289987E+09, 3.336160029379517E+08,
2461771.500000000, A.D. 2028-Jan-01 00:00:00.0000, 5.903740483184180E+09, 1.004709471193713E+09, 3.333032889063417E+08,
$$EOE